OBJECT_NAME,OBJECT_ID,EPOCH,MEAN_MOTION,ECCENTRICITY,INCLINATION,RA_OF_ASC_NODE,ARG_OF_PERICENTER,MEAN_ANOMALY,EPHEMERIS_TYPE,CLASSIFICATION_TYPE,NORAD_CAT_ID,ELEMENT_SET_NO,REV_AT_EPOCH,BSTAR,MEAN_MOTION_DOT,MEAN_MOTION_DDOT
DUCHIFAT-1,2014-033M,2026-06-18T16:25:31.161216,15.64848252,.0002814,98.0447,229.0553,113.8680,246.2872,0,U,40021,999,65598,.89915901E-3,.88318E-3,0
NANOSATC-BR1,2014-033Q,2026-06-19T13:22:54.186240,15.31519483,.00045799,98.0718,203.1557,156.7506,203.3942,0,U,40024,999,65434,.45550644E-3,.13791E-3,0
QB50P1,2014-033R,2026-06-19T06:13:02.525664,15.18285787,.00080059,98.0964,181.5504,207.6997,152.3810,0,U,40025,999,65334,.33443702E-3,.6785E-4,0
DTUSAT-2,2014-033W,2026-06-19T13:11:20.201568,15.15041809,.0006872,98.0865,168.4264,216.2454,143.8312,0,U,40030,999,65304,.32126275E-3,.5935E-4,0
QB50P2,2014-033Y,2026-06-19T11:27:41.239296,15.15183403,.00081921,98.0755,167.5004,156.5164,203.6442,0,U,40032,999,65301,.34510505E-3,.6408E-4,0
PERSEUS-M1,2014-033AF,2026-06-19T13:52:58.534464,14.95636995,.00101335,97.9640,114.7493,292.2356,67.7790,0,U,40039,999,65099,.128992E-3,.1374E-4,0
POLYITAN-1,2014-033AJ,2026-06-19T08:04:26.402880,15.33319639,.00087522,98.0941,196.8009,135.2104,224.9844,0,U,40042,999,65392,.50656451E-3,.16256E-3,0
TIGRISAT,2014-033AK,2026-06-19T11:22:28.568064,14.85169819,.00505154,97.7834,320.4330,67.8951,292.7617,0,U,40043,999,64596,.18305756E-3,.1548E-4,0
CANX-4,2014-034C,2026-06-19T14:00:32.591520,14.81268197,.00129891,98.3119,45.9848,9.5361,350.6094,0,U,40055,999,64488,.92291276E-4,.663E-5,0
CANX-5,2014-034D,2026-06-19T13:58:14.811168,14.81285489,.00129885,98.3120,46.0268,9.7788,350.3674,0,U,40056,999,63569,.93470949E-4,.672E-5,0
GONETS-M 10,2014-036C,2026-06-19T15:30:35.150688,12.42945388,.00227438,82.5121,306.1465,135.4611,224.8302,0,U,40063,999,54255,-.19919001E-3,-.18E-6,0
METEOR-M 2,2014-037A,2026-06-19T14:37:19.526592,14.21461662,.00066619,98.5119,146.2620,38.4035,321.7617,0,U,40069,999,61966,-.8817443E-5,-.61E-6,0
DX1,2014-037C,2026-06-19T13:51:41.690304,14.89990357,.0005655,98.3872,132.4243,265.9238,94.1332,0,U,40071,999,64646,.1446283E-3,.1332E-4,0
UKUBE-1,2014-037F,2026-06-19T13:09:25.596288,15.13585482,.00027498,98.4239,174.0682,127.9455,232.2022,0,U,40074,999,64891,.3948138E-3,.7009E-4,0
GAOFEN-2,2014-049A,2026-06-19T14:36:38.903040,14.80902130,.00062835,98.0104,234.8140,217.1838,142.8940,0,U,40118,999,63959,.13417352E-3,.984E-5,0
BRITE-PL2 (HEWELIUSZ),2014-049B,2026-06-19T13:58:49.822176,14.94600826,.00153645,97.9101,282.6009,101.3495,258.9452,0,U,40119,999,64180,.15857707E-3,.166E-4,0
CBERS 4,2014-079A,2026-06-19T14:47:18.207744,14.35510706,.00017645,98.3525,227.3719,61.9623,298.1741,0,U,40336,999,60430,.13728427E-3,.353E-5,0
SMAP,2015-003A,2026-06-19T12:59:40.371936,14.63368307,.00013523,98.1276,177.6026,96.9426,263.1930,0,U,40376,999,60796,.69769628E-4,.314E-5,0
GONETS-M 11,2015-020A,2026-06-19T14:01:22.432224,12.42878035,.00164974,82.4863,29.4976,0.6987,359.4113,0,U,40552,999,50903,.10488675E-2,.155E-5,0
GONETS-M 12,2015-020B,2026-06-19T15:19:04.628928,12.42891644,.00152092,82.4897,30.5886,345.6896,14.3751,0,U,40553,999,50903,.46804859E-3,.75E-6,0
GONETS-M 13,2015-020C,2026-06-19T14:40:57.046368,12.42871102,.00135435,82.4859,29.2193,330.9727,29.0598,0,U,40554,999,50900,.80175978E-3,.121E-5,0
DMC3-FM1,2015-032A,2026-06-19T13:30:03.811104,14.85738973,.00068415,97.6452,35.6438,53.5747,306.6099,0,U,40715,999,59026,.12168139E-4,.54E-6,0
DMC3-FM2,2015-032B,2026-06-19T14:01:48.372960,14.85746572,.00074446,97.6506,37.2401,58.1632,302.0307,0,U,40716,999,59026,.80629348E-4,.649E-5,0
DMC3-FM3,2015-032C,2026-06-19T14:35:25.051776,14.85738150,.00067496,97.6560,39.0176,58.5517,301.6358,0,U,40717,999,59027,.10058585E-3,.822E-5,0
CARBONITE 1 (CBNT-1),2015-032D,2026-06-19T14:39:11.414592,14.83593085,.00130473,97.6508,348.5750,289.4968,70.4836,0,U,40718,999,58970,.13761193E-3,.1085E-4,0
LILACSAT-2,2015-049K,2026-06-19T14:15:34.777728,15.51509945,.00056572,97.4640,207.5275,233.6644,126.4086,0,U,40908,999,59612,.24156105E-3,.14195E-3,0
